{"type": "FeatureCollection", "features": [ {"type": "Feature", "properties": {"norad_id": 34962, "name": "COSMOS 2251 DEB", "group": "cosmos-2251-debris", "lat": 51.39686818697157, "lon": -153.09399058183598, "alt_km": 737.6944194439893, "timestamp": "2025-12-16T17:51:11.327923+00:00", "meta": {"OBJECT_NAME": "COSMOS 2251 DEB", "OBJECT_ID": "1993-036AER", "EPOCH": "2025-12-15T06:44:47.391648", "MEAN_MOTION": 14.46525173, "ECCENTRICITY": 0.00187713, "INCLINATION": 74.0293, "RA_OF_ASC_NODE": 188.6171, "ARG_OF_PERICENTER": 301.721, "MEAN_ANOMALY": 58.2118, "EPHEMERIS_TYPE": 0, "CLASSIFICATION_TYPE": "U", "NORAD_CAT_ID": 34962, "ELEMENT_SET_NO": 999, "REV_AT_EPOCH": 87615, "BSTAR": 0.00035414962, "MEAN_MOTION_DOT": 1.251e-05, "MEAN_MOTION_DDOT": 0}, "tle": {"line1": "1 34962U 93036AER 25349.28110407  .00001251  00000+0  35415-3 0  9990", "line2": "2 34962  74.0293 188.6171 0018771 301.7210  58.2118 14.46525173876151"}}, "geometry": {"type": "Point", "coordinates": [-153.09399058183598, 51.39686818697157]}}, {"type": "Feature", "properties": {"norad_id": 34963, "name": "COSMOS 2251 DEB", "group": "cosmos-2251-debris", "lat": 17.85101956797892, "lon": 40.518291728619694, "alt_km": 747.5228625790378, "timestamp": "2025-12-16T17:51:11.327933+00:00", "meta": {"OBJECT_NAME": "COSMOS 2251 DEB", "OBJECT_ID": "1993-036AES", "EPOCH": "2025-12-12T21:06:37.533312", "MEAN_MOTION": 14.5108556, "ECCENTRICITY": 0.00425092, "INCLINATION": 74.1719, "RA_OF_ASC_NODE": 42.4827, "ARG_OF_PERICENTER": 238.9907, "MEAN_ANOMALY": 120.7077, "EPHEMERIS_TYPE": 0, "CLASSIFICATION_TYPE": "U", "NORAD_CAT_ID": 34963, "ELEMENT_SET_NO": 999, "REV_AT_EPOCH": 86803, "BSTAR": 0.0018603991, "MEAN_MOTION_DOT": 7.439e-05, "MEAN_MOTION_DDOT": 0}, "tle": {"line1": "1 34963U 93036AES 25346.87960108  .00007439  00000+0  18604-2 0  9998", "line2": "2 34963  74.1719  42.4827 0042509 238.9907 120.7077 14.51085560868035"}}, "geometry": {"type": "Point", "coordinates": [40.518291728619694, 17.85101956797892]}}, {"type": "Feature", "properties": {"norad_id": 34964, "name": "COSMOS 2251 DEB", "group": "cosmos-2251-debris", "lat": 28.589730963941754, "lon": -10.112135672590522, "alt_km": 1041.3144386525464, "timestamp": "2025-12-16T17:51:11.327943+00:00", "meta": {"OBJECT_NAME": "COSMOS 2251 DEB", "OBJECT_ID": "1993-036AET", "EPOCH": "2025-12-12T17:42:31.829760", "MEAN_MOTION": 14.00606472, "ECCENTRICITY": 0.0212761, "INCLINATION": 73.9721, "RA_OF_ASC_NODE": 347.8441, "ARG_OF_PERICENTER": 206.277, "MEAN_ANOMALY": 152.7449, "EPHEMERIS_TYPE": 0, "CLASSIFICATION_TYPE": "U", "NORAD_CAT_ID": 34964, "ELEMENT_SET_NO": 999, "REV_AT_EPOCH": 84478, "BSTAR": 0.0019398871, "MEAN_MOTION_DOT": 3.487e-05, "MEAN_MOTION_DDOT": 0}, "tle": {"line1": "1 34964U 93036AET 25346.73786840  .00003487  00000+0  19399-2 0  9994", "line2": "2 34964  73.9721 347.8441 0212761 206.2770 152.7449 14.00606472844784"}}, "geometry": {"type": "Point", "coordinates": [-10.112135672590522, 28.589730963941754]}}, {"type": "Feature", "properties": {"norad_id": 34965, "name": "COSMOS 2251 DEB", "group": "cosmos-2251-debris", "lat": 66.78882530283101, "lon": 162.79676071140463, "alt_km": 741.7426603630593, "timestamp": "2025-12-16T17:51:11.327954+00:00", "meta": {"OBJECT_NAME": "COSMOS 2251 DEB", "OBJECT_ID": "1993-036AEU", "EPOCH": "2025-12-13T03:20:09.825504", "MEAN_MOTION": 14.48709196, "ECCENTRICITY": 0.00265546, "INCLINATION": 74.0514, "RA_OF_ASC_NODE": 127.7194, "ARG_OF_PERICENTER": 255.0904, "MEAN_ANOMALY": 104.7315, "EPHEMERIS_TYPE": 0, "CLASSIFICATION_TYPE": "U", "NORAD_CAT_ID": 34965, "ELEMENT_SET_NO": 999, "REV_AT_EPOCH": 87119, "BSTAR": 0.00058289093, "MEAN_MOTION_DOT": 2.18e-05, "MEAN_MOTION_DDOT": 0}, "tle": {"line1": "1 34965U 93036AEU 25347.13900261  .00002180  00000+0  58289-3 0  9996", "line2": "2 34965  74.0514 127.7194 0026554 255.0904 104.7315 14.48709196871194"}}, "geometry": {"type": "Point", "coordinates": [162.79676071140463, 66.78882530283101]}}, {"type": "Feature", "properties": {"norad_id": 34967, "name": "COSMOS 2251 DEB", "group": "cosmos-2251-debris", "lat": -71.47770032095636, "lon": -172.569879424466, "alt_km": 761.4389907778932, "timestamp": "2025-12-16T17:51:11.327964+00:00", "meta": {"OBJECT_NAME": "COSMOS 2251 DEB", "OBJECT_ID": "1993-036AEW", "EPOCH": "2025-12-13T00:27:20.673792", "MEAN_MOTION": 14.44269018, "ECCENTRICITY": 0.00380101, "INCLINATION": 73.9933, "RA_OF_ASC_NODE": 253.3374, "ARG_OF_PERICENTER": 39.5345, "MEAN_ANOMALY": 320.8573, "EPHEMERIS_TYPE": 0, "CLASSIFICATION_TYPE": "U", "NORAD_CAT_ID": 34967, "ELEMENT_SET_NO": 999, "REV_AT_EPOCH": 64961, "BSTAR": 0.0011451852, "MEAN_MOTION_DOT": 3.946e-05, "MEAN_MOTION_DDOT": 0}, "tle": {"line1": "1 34967U 93036AEW 25347.01898928  .00003946  00000+0  11452-2 0  9992", "line2": "2 34967  73.9933 253.3374 0038010  39.5345 320.8573 14.44269018649616"}}, "geometry": {"type": "Point", "coordinates": [-172.569879424466, -71.47770032095636]}}, {"type": "Feature", "properties": {"norad_id": 34968, "name": "COSMOS 2251 DEB", "group": "cosmos-2251-debris", "lat": -6.669244230752295, "lon": -122.47985251604418, "alt_km": 637.4885970629966, "timestamp": "2025-12-16T17:51:11.327974+00:00", "meta": {"OBJECT_NAME": "COSMOS 2251 DEB", "OBJECT_ID": "1993-036AEX", "EPOCH": "2025-12-14T03:22:05.329344", "MEAN_MOTION": 14.59409619, "ECCENTRICITY": 0.00866972, "INCLINATION": 74.0386, "RA_OF_ASC_NODE": 244.3991, "ARG_OF_PERICENTER": 4.4101, "MEAN_ANOMALY": 355.7807, "EPHEMERIS_TYPE": 0, "CLASSIFICATION_TYPE": "U", "NORAD_CAT_ID": 34968, "ELEMENT_SET_NO": 999, "REV_AT_EPOCH": 88498, "BSTAR": 0.00021583388, "MEAN_MOTION_DOT": 1.045e-05, "MEAN_MOTION_DDOT": 0}, "tle": {"line1": "1 34968U 93036AEX 25348.14033946  .00001045  00000+0  21583-3 0  9994", "line2": "2 34968  74.0386 244.3991 0086697   4.4101 355.7807 14.59409619884988"}}, "geometry": {"type": "Point", "coordinates": [-122.47985251604418, -6.669244230752295]}}, {"type": "Feature", "properties": {"norad_id": 34969, "name": "COSMOS 2251 DEB", "group": "cosmos-2251-debris", "lat": 49.228302663641436, "lon": 35.2435304895124, "alt_km": 784.5052844976217, "timestamp": "2025-12-16T17:51:11.327984+00:00", "meta": {"OBJECT_NAME": "COSMOS 2251 DEB", "OBJECT_ID": "1993-036AEY", "EPOCH": "2025-12-15T18:08:26.126880", "MEAN_MOTION": 14.32260529, "ECCENTRICITY": 0.00734759, "INCLINATION": 74.0142, "RA_OF_ASC_NODE": 17.6317, "ARG_OF_PERICENTER": 150.1137, "MEAN_ANOMALY": 210.4241, "EPHEMERIS_TYPE": 0, "CLASSIFICATION_TYPE": "U", "NORAD_CAT_ID": 34969, "ELEMENT_SET_NO": 999, "REV_AT_EPOCH": 65180, "BSTAR": 0.00024953546, "MEAN_MOTION_DOT": 6.68e-06, "MEAN_MOTION_DDOT": 0}, "tle": {"line1": "1 34969U 93036AEY 25349.75585795  .00000668  00000+0  24954-3 0  9992", "line2": "2 34969  74.0142  17.6317 0073475 150.1137 210.4241 14.32260529651808"}}, "geometry": {"type": "Point", "coordinates": [35.2435304895124, 49.228302663641436]}}, {"type": "Feature", "properties": {"norad_id": 34971, "name": "COSMOS 2251 DEB", "group": "cosmos-2251-debris", "lat": 0.5668059841352775, "lon": -82.44082269671485, "alt_km": 748.2352735527547, "timestamp": "2025-12-16T17:51:11.328020+00:00", "meta": {"OBJECT_NAME": "COSMOS 2251 DEB", "OBJECT_ID": "1993-036AFA", "EPOCH": "2025-12-14T13:53:19.427712", "MEAN_MOTION": 14.55636753, "ECCENTRICITY": 0.00695431, "INCLINATION": 73.9787, "RA_OF_ASC_NODE": 281.5121, "ARG_OF_PERICENTER": 146.7538, "MEAN_ANOMALY": 32.8652, "EPHEMERIS_TYPE": 0, "CLASSIFICATION_TYPE": "U", "NORAD_CAT_ID": 34971, "ELEMENT_SET_NO": 999, "REV_AT_EPOCH": 66199, "BSTAR": 0.00020308025, "MEAN_MOTION_DOT": 8.85e-06, "MEAN_MOTION_DDOT": 0}, "tle": {"line1": "1 34971U 93036AFA 25348.57869708  .00000885  00000+0  20308-3 0  9993", "line2": "2 34971  73.9787 281.5121 0069543 146.7538  32.8652 14.55636753661990"}}, "geometry": {"type": "Point", "coordinates": [-82.44082269671485, 0.5668059841352775]}}, {"type": "Feature", "properties": {"norad_id": 34972, "name": "COSMOS 2251 DEB", "group": "cosmos-2251-debris", "lat": 38.48460373534887, "lon": -151.15938223193493, "alt_km": 636.9246781257052, "timestamp": "2025-12-16T17:51:11.328030+00:00", "meta": {"OBJECT_NAME": "COSMOS 2251 DEB", "OBJECT_ID": "1993-036AFB", "EPOCH": "2025-12-15T10:19:31.579968", "MEAN_MOTION": 14.72931379, "ECCENTRICITY": 0.00334754, "INCLINATION": 73.9887, "RA_OF_ASC_NODE": 44.6018, "ARG_OF_PERICENTER": 203.2448, "MEAN_ANOMALY": 173.7883, "EPHEMERIS_TYPE": 0, "CLASSIFICATION_TYPE": "U", "NORAD_CAT_ID": 34972, "ELEMENT_SET_NO": 999, "REV_AT_EPOCH": 87690, "BSTAR": 0.00082603298, "MEAN_MOTION_DOT": 5.315e-05, "MEAN_MOTION_DDOT": 0}, "tle": {"line1": "1 34972U 93036AFB 25349.43022662  .00005315  00000+0  82603-3 0  9999", "line2": "2 34972  73.9887  44.6018 0033475 203.2448 173.7883 14.72931379876900"}}, "geometry": {"type": "Point", "coordinates": [-151.15938223193493, 38.48460373534887]}}, {"type": "Feature", "properties": {"norad_id": 34976, "name": "COSMOS 2251 DEB", "group": "cosmos-2251-debris", "lat": -67.38387344063807, "lon": -104.91783255549844, "alt_km": 628.9235236007125, "timestamp": "2025-12-16T17:51:11.328041+00:00", "meta": {"OBJECT_NAME": "COSMOS 2251 DEB", "OBJECT_ID": "1993-036AFF", "EPOCH": "2025-12-15T21:11:04.263072", "MEAN_MOTION": 14.76639954, "ECCENTRICITY": 0.00478049, "INCLINATION": 74.0567, "RA_OF_ASC_NODE": 300.0972, "ARG_OF_PERICENTER": 346.2242, "MEAN_ANOMALY": 44.3918, "EPHEMERIS_TYPE": 0, "CLASSIFICATION_TYPE": "U", "NORAD_CAT_ID": 34976, "ELEMENT_SET_NO": 999, "REV_AT_EPOCH": 88320, "BSTAR": 0.0012197404, "MEAN_MOTION_DOT": 8.664e-05, "MEAN_MOTION_DDOT": 0}, "tle": {"line1": "1 34976U 93036AFF 25349.88268823  .00008664  00000+0  12197-2 0  9993", "line2": "2 34976  74.0567 300.0972 0047804 346.2242  44.3918 14.76639954883201"}}, "geometry": {"type": "Point", "coordinates": [-104.91783255549844, -67.38387344063807]}}]}